ROBUSTA-3A (MEDITERRAN*)
1 60243U 24128J   26068.73078396  .00011442  00000+0  68951-3 0  9990
2 60243  61.9866 199.5396 0051919 108.1058 252.5701 15.10076246 91399
STARLINK-35896          
1 66824U 25280D   26068.88967735  .00003836  00000+0  32907-3 0  9991
2 66824  70.0024 334.0424 0002705 274.2001  85.8848 14.98331242 16107
